STARLINK-4434           
1 53501U 22099AN  26062.80487467 -.00000009  00000+0  38692-5 0  9998
2 53501  97.6024 184.4664 0003009  82.5479 277.6088 15.01259490195104
STARLINK-4435           
1 53502U 22099AP  26062.32821527 -.00000693  00000+0 -43824-4 0  9997
2 53502  97.6031 184.9386 0000384 237.7799 122.3391 15.05658155195097
STARLINK-4461           
1 53503U 22099AQ  26062.75002314  .00657788  00000+0  28706-2 0  9991
2 53503  97.6342 209.4215 0001196  64.3021   5.3049 15.83059249  5557
STARLINK-4448           
1 53504U 22099AR  26062.34200560 -.00000447  00000+0 -30269-4 0  9995
2 53504  97.6028 184.0090 0001961  78.9293 281.2152 15.01268154195030
STARLINK-4446           
1 53505U 22099AS  26062.75002314  .01023689  00000+0  28841-1 0  9990
2 53505  97.6041 185.5596 0001293  93.0861 189.4383 15.33787214  5774
STARLINK-4437           
1 53506U 22099AT  26062.33376604 -.00000065  00000+0 -31621-6 0  9990
2 53506  97.6037 184.9148 0000159 163.0679 197.0553 15.05640565195096
STARLINK-4443           
1 53508U 22099AV  26062.77127244  .00000467  00000+0  36542-4 0  9993
2 53508  97.6038 185.4079 0000409 145.2851 214.8402 15.05650326195165
STARLINK-4402           
1 53509U 22099AW  26062.33090107  .00000369  00000+0  33262-4 0  9990
2 53509  97.6029 183.9933 0003422  81.6096 278.5517 15.01262214195031
STARLINK-4503           
1 53528U 22101B   26062.42050302  .00000367  00000+0  41168-4 0  9990
2 53528  53.2163 102.2659 0001183  92.0992 268.0136 15.08837587195210
STARLINK-4478           
1 53529U 22101C   26062.52957353  .00026109  00000+0  15883-2 0  9999
2 53529  53.2156 101.6207 0003078  45.3853 314.7390 15.10286082195231
STARLINK-4482           
1 53530U 22101D   26062.42788722  .00000232  00000+0  32673-4 0  9999
2 53530  53.2167 102.4522 0001238  93.7754 266.3379 15.08837544195216
STARLINK-4487           
1 53531U 22101E   26062.54194026  .00000119  00000+0  25588-4 0  9992
2 53531  53.2167 101.7212 0001364  89.0550 271.0599 15.08837478195232
STARLINK-4483           
1 53532U 22101F   26062.37634247  .00003265  00000+0  22318-3 0  9990
2 53532  53.2163 102.4613 0001589  99.5834 260.5338 15.08833589195213
STARLINK-4493           
1 53533U 22101G   26062.37265884  .00000074  00000+0  22753-4 0  9997
2 53533  53.2169 102.4667 0001343  90.8779 269.2367 15.08841559195213
STARLINK-4138           
1 53535U 22101J   26062.36898793 -.00000048  00000+0  15056-4 0  9999
2 53535  53.2173 102.4952 0001452  87.4573 272.6586 15.08838107195218
STARLINK-4053           
1 53536U 22101K   26062.34413137  .00000160  00000+0  28158-4 0  9994
2 53536  53.2171  92.5290 0001314  89.2350 270.8793 15.08839947195348
