[{"OBJECT_NAME":"STARLINK-4434","OBJECT_ID":"2022-099AN","EPOCH":"2026-03-03T19:19:01.171488","MEAN_MOTION":15.0125949,"ECCENTRICITY":0.0003009,"INCLINATION":97.6024,"RA_OF_ASC_NODE":184.4664,"ARG_OF_PERICENTER":82.5479,"MEAN_ANOMALY":277.6088,"EPHEMERIS_TYPE":0,"CLASSIFICATION_TYPE":"U","NORAD_CAT_ID":53501,"ELEMENT_SET_NO":999,"REV_AT_EPOCH":19510,"BSTAR":3.8692e-6,"MEAN_MOTION_DOT":-9.0e-8,"MEAN_MOTION_DDOT":0},{"OBJECT_NAME":"STARLINK-4435","OBJECT_ID":"2022-099AP","EPOCH":"2026-03-03T07:52:37.799328","MEAN_MOTION":15.05658155,"ECCENTRICITY":3.843e-5,"INCLINATION":97.6031,"RA_OF_ASC_NODE":184.9386,"ARG_OF_PERICENTER":237.7799,"MEAN_ANOMALY":122.3391,"EPHEMERIS_TYPE":0,"CLASSIFICATION_TYPE":"U","NORAD_CAT_ID":53502,"ELEMENT_SET_NO":999,"REV_AT_EPOCH":19509,"BSTAR":-4.3824142e-5,"MEAN_MOTION_DOT":-6.93e-6,"MEAN_MOTION_DDOT":0},{"OBJECT_NAME":"STARLINK-4461","OBJECT_ID":"2022-099AQ","EPOCH":"2026-03-03T18:00:01.999296","MEAN_MOTION":15.83059249,"ECCENTRICITY":0.0001196,"INCLINATION":97.6342,"RA_OF_ASC_NODE":209.4215,"ARG_OF_PERICENTER":64.3021,"MEAN_ANOMALY":5.3049,"EPHEMERIS_TYPE":0,"CLASSIFICATION_TYPE":"U","NORAD_CAT_ID":53503,"ELEMENT_SET_NO":999,"REV_AT_EPOCH":555,"BSTAR":0.0028706,"MEAN_MOTION_DOT":0.00657788,"MEAN_MOTION_DDOT":0},{"OBJECT_NAME":"STARLINK-4448","OBJECT_ID":"2022-099AR","EPOCH":"2026-03-03T08:12:29.283840","MEAN_MOTION":15.01268154,"ECCENTRICITY":0.0001961,"INCLINATION":97.6028,"RA_OF_ASC_NODE":184.009,"ARG_OF_PERICENTER":78.9293,"MEAN_ANOMALY":281.2152,"EPHEMERIS_TYPE":0,"CLASSIFICATION_TYPE":"U","NORAD_CAT_ID":53504,"ELEMENT_SET_NO":999,"REV_AT_EPOCH":19503,"BSTAR":-3.0268786e-5,"MEAN_MOTION_DOT":-4.47e-6,"MEAN_MOTION_DDOT":0},{"OBJECT_NAME":"STARLINK-4446","OBJECT_ID":"2022-099AS","EPOCH":"2026-03-03T18:00:01.999296","MEAN_MOTION":15.33787214,"ECCENTRICITY":0.0001293,"INCLINATION":97.6041,"RA_OF_ASC_NODE":185.5596,"ARG_OF_PERICENTER":93.0861,"MEAN_ANOMALY":189.4383,"EPHEMERIS_TYPE":0,"CLASSIFICATION_TYPE":"U","NORAD_CAT_ID":53505,"ELEMENT_SET_NO":999,"REV_AT_EPOCH":577,"BSTAR":0.028841,"MEAN_MOTION_DOT":0.01023689,"MEAN_MOTION_DDOT":0},{"OBJECT_NAME":"STARLINK-4437","OBJECT_ID":"2022-099AT","EPOCH":"2026-03-03T08:00:37.385856","MEAN_MOTION":15.05640565,"ECCENTRICITY":1.593e-5,"INCLINATION":97.6037,"RA_OF_ASC_NODE":184.9148,"ARG_OF_PERICENTER":163.0679,"MEAN_ANOMALY":197.0553,"EPHEMERIS_TYPE":0,"CLASSIFICATION_TYPE":"U","NORAD_CAT_ID":53506,"ELEMENT_SET_NO":999,"REV_AT_EPOCH":19509,"BSTAR":-3.16212e-7,"MEAN_MOTION_DOT":-6.5e-7,"MEAN_MOTION_DDOT":0},{"OBJECT_NAME":"STARLINK-4443","OBJECT_ID":"2022-099AV","EPOCH":"2026-03-03T18:30:37.938816","MEAN_MOTION":15.05650326,"ECCENTRICITY":4.09e-5,"INCLINATION":97.6038,"RA_OF_ASC_NODE":185.4079,"ARG_OF_PERICENTER":145.2851,"MEAN_ANOMALY":214.8402,"EPHEMERIS_TYPE":0,"CLASSIFICATION_TYPE":"U","NORAD_CAT_ID":53508,"ELEMENT_SET_NO":999,"REV_AT_EPOCH":19516,"BSTAR":3.6542e-5,"MEAN_MOTION_DOT":4.67e-6,"MEAN_MOTION_DDOT":0},{"OBJECT_NAME":"STARLINK-4402","OBJECT_ID":"2022-099AW","EPOCH":"2026-03-03T07:56:29.852448","MEAN_MOTION":15.01262214,"ECCENTRICITY":0.00034226,"INCLINATION":97.6029,"RA_OF_ASC_NODE":183.9933,"ARG_OF_PERICENTER":81.6096,"MEAN_ANOMALY":278.5517,"EPHEMERIS_TYPE":0,"CLASSIFICATION_TYPE":"U","NORAD_CAT_ID":53509,"ELEMENT_SET_NO":999,"REV_AT_EPOCH":19503,"BSTAR":3.3262367e-5,"MEAN_MOTION_DOT":3.69e-6,"MEAN_MOTION_DDOT":0},{"OBJECT_NAME":"STARLINK-4503","OBJECT_ID":"2022-101B","EPOCH":"2026-03-03T10:05:31.460928","MEAN_MOTION":15.08837587,"ECCENTRICITY":0.00011835,"INCLINATION":53.2163,"RA_OF_ASC_NODE":102.2659,"ARG_OF_PERICENTER":92.0992,"MEAN_ANOMALY":268.0136,"EPHEMERIS_TYPE":0,"CLASSIFICATION_TYPE":"U","NORAD_CAT_ID":53528,"ELEMENT_SET_NO":999,"REV_AT_EPOCH":19521,"BSTAR":4.1168102e-5,"MEAN_MOTION_DOT":3.67e-6,"MEAN_MOTION_DDOT":0},{"OBJECT_NAME":"STARLINK-4478","OBJECT_ID":"2022-101C","EPOCH":"2026-03-03T12:42:35.152992","MEAN_MOTION":15.10286082,"ECCENTRICITY":0.0003078,"INCLINATION":53.2156,"RA_OF_ASC_NODE":101.6207,"ARG_OF_PERICENTER":45.3853,"MEAN_ANOMALY":314.739,"EPHEMERIS_TYPE":0,"CLASSIFICATION_TYPE":"U","NORAD_CAT_ID":53529,"ELEMENT_SET_NO":999,"REV_AT_EPOCH":19523,"BSTAR":0.0015883,"MEAN_MOTION_DOT":0.00026109,"MEAN_MOTION_DDOT":0},{"OBJECT_NAME":"STARLINK-4482","OBJECT_ID":"2022-101D","EPOCH":"2026-03-03T10:16:09.455808","MEAN_MOTION":15.08837544,"ECCENTRICITY":0.0001238,"INCLINATION":53.2167,"RA_OF_ASC_NODE":102.4522,"ARG_OF_PERICENTER":93.7754,"MEAN_ANOMALY":266.3379,"EPHEMERIS_TYPE":0,"CLASSIFICATION_TYPE":"U","NORAD_CAT_ID":53530,"ELEMENT_SET_NO":999,"REV_AT_EPOCH":19521,"BSTAR":3.267332e-5,"MEAN_MOTION_DOT":2.32e-6,"MEAN_MOTION_DDOT":0},{"OBJECT_NAME":"STARLINK-4487","OBJECT_ID":"2022-101E","EPOCH":"2026-03-03T13:00:23.638464","MEAN_MOTION":15.08837478,"ECCENTRICITY":0.0001364,"INCLINATION":53.2167,"RA_OF_ASC_NODE":101.7212,"ARG_OF_PERICENTER":89.055,"MEAN_ANOMALY":271.0599,"EPHEMERIS_TYPE":0,"CLASSIFICATION_TYPE":"U","NORAD_CAT_ID":53531,"ELEMENT_SET_NO":999,"REV_AT_EPOCH":19523,"BSTAR":2.5588e-5,"MEAN_MOTION_DOT":1.19e-6,"MEAN_MOTION_DDOT":0},{"OBJECT_NAME":"STARLINK-4483","OBJECT_ID":"2022-101F","EPOCH":"2026-03-03T09:01:55.989408","MEAN_MOTION":15.08833589,"ECCENTRICITY":0.00015893,"INCLINATION":53.2163,"RA_OF_ASC_NODE":102.4613,"ARG_OF_PERICENTER":99.5834,"MEAN_ANOMALY":260.5338,"EPHEMERIS_TYPE":0,"CLASSIFICATION_TYPE":"U","NORAD_CAT_ID":53532,"ELEMENT_SET_NO":999,"REV_AT_EPOCH":19521,"BSTAR":0.00022317923,"MEAN_MOTION_DOT":3.265e-5,"MEAN_MOTION_DDOT":0},{"OBJECT_NAME":"STARLINK-4493","OBJECT_ID":"2022-101G","EPOCH":"2026-03-03T08:56:37.723776","MEAN_MOTION":15.08841559,"ECCENTRICITY":0.00013434,"INCLINATION":53.2169,"RA_OF_ASC_NODE":102.4667,"ARG_OF_PERICENTER":90.8779,"MEAN_ANOMALY":269.2367,"EPHEMERIS_TYPE":0,"CLASSIFICATION_TYPE":"U","NORAD_CAT_ID":53533,"ELEMENT_SET_NO":999,"REV_AT_EPOCH":19521,"BSTAR":2.2752706e-5,"MEAN_MOTION_DOT":7.4e-7,"MEAN_MOTION_DDOT":0},{"OBJECT_NAME":"STARLINK-4138","OBJECT_ID":"2022-101J","EPOCH":"2026-03-03T08:51:20.557152","MEAN_MOTION":15.08838107,"ECCENTRICITY":0.00014524,"INCLINATION":53.2173,"RA_OF_ASC_NODE":102.4952,"ARG_OF_PERICENTER":87.4573,"MEAN_ANOMALY":272.6586,"EPHEMERIS_TYPE":0,"CLASSIFICATION_TYPE":"U","NORAD_CAT_ID":53535,"ELEMENT_SET_NO":999,"REV_AT_EPOCH":19521,"BSTAR":1.5055957e-5,"MEAN_MOTION_DOT":-4.8e-7,"MEAN_MOTION_DDOT":0},{"OBJECT_NAME":"STARLINK-4053","OBJECT_ID":"2022-101K","EPOCH":"2026-03-03T08:15:32.950368","MEAN_MOTION":15.08839947,"ECCENTRICITY":0.00013147,"INCLINATION":53.2171,"RA_OF_ASC_NODE":92.529,"ARG_OF_PERICENTER":89.235,"MEAN_ANOMALY":270.8793,"EPHEMERIS_TYPE":0,"CLASSIFICATION_TYPE":"U","NORAD_CAT_ID":53536,"ELEMENT_SET_NO":999,"REV_AT_EPOCH":19534,"BSTAR":2.8157577e-5,"MEAN_MOTION_DOT":1.6e-6,"MEAN_MOTION_DDOT":0}]
